ORBCOMM FM33            
1 25983U 99065D   25343.45290096  .00001809  00000+0  60744-3 0  9999
2 25983  45.0270 245.4047 0007683 233.0690 126.9456 14.40518242361330
ORBCOMM FM36            
1 25984U 99065E   25343.08806440  .00001786  00000+0  62287-3 0  9993
2 25984  45.0394 341.7215 0000576 104.0011 256.0902 14.38693273359606
ORBCOMM FM35            
1 25985U 99065F   25342.70975872  .00002325  00000+0  81462-3 0  9994
2 25985  45.0400 349.9681 0004539 221.0643 138.9864 14.37604660359893
ORBCOMM FM34            
1 25986U 99065G   25343.44067576  .00001787  00000+0  63772-3 0  9995
2 25986  45.0400 346.9741 0002784 179.5995 180.4856 14.37558734360115
ORBCOMM FM38            
1 33060U 08031A   25343.34227250  .00003054  00000+0  40518-3 0  9998
2 33060  48.4376 200.0210 0004396  79.0860 281.0551 14.82241451940729
ORBCOMM FM41            
1 33061U 08031B   25343.01015691  .00002339  00000+0  31997-3 0  9993
2 33061  48.4410 210.0045 0003600  59.6236  39.6400 14.81795585940152
ORBCOMM FM29            
1 33062U 08031C   25343.39823041  .00003375  00000+0  44812-3 0  9992
2 33062  48.4369 215.7287 0005332  60.2551 109.6858 14.81945995940122
ORBCOMM FM39            
1 33063U 08031D   25343.43901365  .00003210  00000+0  44342-3 0  9990
2 33063  48.4390 241.7893 0006396  28.0679 332.0580 14.80387967939752
